{"type": "FeatureCollection", "features": [ {"type": "Feature", "properties": {"norad_id": 35663, "name": "COSMOS 2251 DEB", "group": "cosmos-2251-debris", "lat": 37.34425164145254, "lon": -96.6091169801062, "alt_km": 667.767776442679, "timestamp": "2025-12-27T14:26:30.917865+00:00", "meta": {"OBJECT_NAME": "COSMOS 2251 DEB", "OBJECT_ID": "1993-036APE", "EPOCH": "2025-12-19T23:59:07.553472", "MEAN_MOTION": 14.65779868, "ECCENTRICITY": 0.00057705, "INCLINATION": 74.0195, "RA_OF_ASC_NODE": 110.6712, "ARG_OF_PERICENTER": 187.908, "MEAN_ANOMALY": 172.1999, "EPHEMERIS_TYPE": 0, "CLASSIFICATION_TYPE": "U", "NORAD_CAT_ID": 35663, "ELEMENT_SET_NO": 999, "REV_AT_EPOCH": 73488, "BSTAR": 0.0009843987, "MEAN_MOTION_DOT": 5.342e-05, "MEAN_MOTION_DDOT": 0}, "tle": {"line1": "1 35663U 93036APE 25353.99939298  .00005342  00000+0  98440-3 0  9991", "line2": "2 35663  74.0195 110.6712 0005770 187.9080 172.1999 14.65779868734880"}}, "geometry": {"type": "Point", "coordinates": [-96.6091169801062, 37.34425164145254]}}, {"type": "Feature", "properties": {"norad_id": 35667, "name": "COSMOS 2251 DEB", "group": "cosmos-2251-debris", "lat": -61.233544969718565, "lon": -36.83915083833325, "alt_km": 696.0064054031236, "timestamp": "2025-12-27T14:26:30.917875+00:00", "meta": {"OBJECT_NAME": "COSMOS 2251 DEB", "OBJECT_ID": "1993-036APJ", "EPOCH": "2025-12-26T14:18:03.085056", "MEAN_MOTION": 14.60166033, "ECCENTRICITY": 0.0018708, "INCLINATION": 74.0556, "RA_OF_ASC_NODE": 113.6955, "ARG_OF_PERICENTER": 172.6755, "MEAN_ANOMALY": 187.4688, "EPHEMERIS_TYPE": 0, "CLASSIFICATION_TYPE": "U", "NORAD_CAT_ID": 35667, "ELEMENT_SET_NO": 999, "REV_AT_EPOCH": 71005, "BSTAR": 0.0012268, "MEAN_MOTION_DOT": 5.898e-05, "MEAN_MOTION_DDOT": 0}, "tle": {"line1": "1 35667U 93036APJ 25360.59586904  .00005898  00000+0  12268-2 0  9990", "line2": "2 35667  74.0556 113.6955 0018708 172.6755 187.4688 14.60166033710058"}}, "geometry": {"type": "Point", "coordinates": [-36.83915083833325, -61.233544969718565]}}, {"type": "Feature", "properties": {"norad_id": 35668, "name": "COSMOS 2251 DEB", "group": "cosmos-2251-debris", "lat": -26.501251241882184, "lon": 20.194668991941434, "alt_km": 681.1298856789699, "timestamp": "2025-12-27T14:26:30.917885+00:00", "meta": {"OBJECT_NAME": "COSMOS 2251 DEB", "OBJECT_ID": "1993-036APK", "EPOCH": "2025-12-26T19:26:55.550688", "MEAN_MOTION": 14.64024232, "ECCENTRICITY": 0.00835918, "INCLINATION": 74.0428, "RA_OF_ASC_NODE": 193.5113, "ARG_OF_PERICENTER": 295.4318, "MEAN_ANOMALY": 63.8215, "EPHEMERIS_TYPE": 0, "CLASSIFICATION_TYPE": "U", "NORAD_CAT_ID": 35668, "ELEMENT_SET_NO": 999, "REV_AT_EPOCH": 87853, "BSTAR": 0.00024286781, "MEAN_MOTION_DOT": 1.306e-05, "MEAN_MOTION_DDOT": 0}, "tle": {"line1": "1 35668U 93036APK 25360.81036517  .00001306  00000+0  24287-3 0  9991", "line2": "2 35668  74.0428 193.5113 0083591 295.4318  63.8215 14.64024232878530"}}, "geometry": {"type": "Point", "coordinates": [20.194668991941434, -26.501251241882184]}}, {"type": "Feature", "properties": {"norad_id": 35669, "name": "COSMOS 2251 DEB", "group": "cosmos-2251-debris", "lat": -52.48124806052027, "lon": -22.69507262078935, "alt_km": 767.7687197427376, "timestamp": "2025-12-27T14:26:30.917896+00:00", "meta": {"OBJECT_NAME": "COSMOS 2251 DEB", "OBJECT_ID": "1993-036APL", "EPOCH": "2025-12-20T02:35:15.805248", "MEAN_MOTION": 13.57168765, "ECCENTRICITY": 0.03877863, "INCLINATION": 73.8603, "RA_OF_ASC_NODE": 147.3718, "ARG_OF_PERICENTER": 257.91, "MEAN_ANOMALY": 97.8317, "EPHEMERIS_TYPE": 0, "CLASSIFICATION_TYPE": "U", "NORAD_CAT_ID": 35669, "ELEMENT_SET_NO": 999, "REV_AT_EPOCH": 60889, "BSTAR": 0.00066721827, "MEAN_MOTION_DOT": 7.5e-06, "MEAN_MOTION_DDOT": 0}, "tle": {"line1": "1 35669U 93036APL 25354.10782182  .00000750  00000+0  66722-3 0  9995", "line2": "2 35669  73.8603 147.3718 0387786 257.9100  97.8317 13.57168765608897"}}, "geometry": {"type": "Point", "coordinates": [-22.69507262078935, -52.48124806052027]}}, {"type": "Feature", "properties": {"norad_id": 35670, "name": "COSMOS 2251 DEB", "group": "cosmos-2251-debris", "lat": -52.51099465511206, "lon": 12.172749016128185, "alt_km": 572.9980254167749, "timestamp": "2025-12-27T14:26:30.917906+00:00", "meta": {"OBJECT_NAME": "COSMOS 2251 DEB", "OBJECT_ID": "1993-036APM", "EPOCH": "2025-12-22T20:36:05.670144", "MEAN_MOTION": 14.94150162, "ECCENTRICITY": 0.0038413, "INCLINATION": 73.8936, "RA_OF_ASC_NODE": 43.936, "ARG_OF_PERICENTER": 2.2242, "MEAN_ANOMALY": 357.9104, "EPHEMERIS_TYPE": 0, "CLASSIFICATION_TYPE": "U", "NORAD_CAT_ID": 35670, "ELEMENT_SET_NO": 999, "REV_AT_EPOCH": 87878, "BSTAR": 0.0012423, "MEAN_MOTION_DOT": 0.00013477, "MEAN_MOTION_DDOT": 0}, "tle": {"line1": "1 35670U 93036APM 25356.85839896  .00013477  00000+0  12423-2 0  9994", "line2": "2 35670  73.8936  43.9360 0038413   2.2242 357.9104 14.94150162878785"}}, "geometry": {"type": "Point", "coordinates": [12.172749016128185, -52.51099465511206]}}, {"type": "Feature", "properties": {"norad_id": 35671, "name": "COSMOS 2251 DEB", "group": "cosmos-2251-debris", "lat": 72.12801806011709, "lon": 168.72606093660775, "alt_km": 740.3412784392194, "timestamp": "2025-12-27T14:26:30.917916+00:00", "meta": {"OBJECT_NAME": "COSMOS 2251 DEB", "OBJECT_ID": "1993-036APN", "EPOCH": "2025-12-25T14:36:47.670048", "MEAN_MOTION": 14.48368538, "ECCENTRICITY": 0.0041274, "INCLINATION": 74.0177, "RA_OF_ASC_NODE": 55.1855, "ARG_OF_PERICENTER": 227.0867, "MEAN_ANOMALY": 284.5499, "EPHEMERIS_TYPE": 0, "CLASSIFICATION_TYPE": "U", "NORAD_CAT_ID": 35671, "ELEMENT_SET_NO": 999, "REV_AT_EPOCH": 86949, "BSTAR": 0.00019838, "MEAN_MOTION_DOT": 7.22e-06, "MEAN_MOTION_DDOT": 0}, "tle": {"line1": "1 35671U 93036APN 25359.60888507  .00000722  00000+0  19838-3 0  9991", "line2": "2 35671  74.0177  55.1855 0041274 227.0867 284.5499 14.48368538869496"}}, "geometry": {"type": "Point", "coordinates": [168.72606093660775, 72.12801806011709]}}, {"type": "Feature", "properties": {"norad_id": 35674, "name": "COSMOS 2251 DEB", "group": "cosmos-2251-debris", "lat": -63.0271718252048, "lon": -105.72475902568888, "alt_km": 663.8508978566542, "timestamp": "2025-12-27T14:26:30.917926+00:00", "meta": {"OBJECT_NAME": "COSMOS 2251 DEB", "OBJECT_ID": "1993-036APR", "EPOCH": "2025-12-27T04:50:36.723552", "MEAN_MOTION": 14.54435598, "ECCENTRICITY": 0.00962254, "INCLINATION": 74.0593, "RA_OF_ASC_NODE": 289.1968, "ARG_OF_PERICENTER": 330.7304, "MEAN_ANOMALY": 28.8486, "EPHEMERIS_TYPE": 0, "CLASSIFICATION_TYPE": "U", "NORAD_CAT_ID": 35674, "ELEMENT_SET_NO": 999, "REV_AT_EPOCH": 86321, "BSTAR": 0.0020187253, "MEAN_MOTION_DOT": 9.118e-05, "MEAN_MOTION_DDOT": 0}, "tle": {"line1": "1 35674U 93036APR 25361.20181393  .00009118  00000+0  20187-2 0  9998", "line2": "2 35674  74.0593 289.1968 0096225 330.7304  28.8486 14.54435598863216"}}, "geometry": {"type": "Point", "coordinates": [-105.72475902568888, -63.0271718252048]}}, {"type": "Feature", "properties": {"norad_id": 35701, "name": "COSMOS 2251 DEB", "group": "cosmos-2251-debris", "lat": -73.74933716813156, "lon": -162.39973446105842, "alt_km": 1148.913278945768, "timestamp": "2025-12-27T14:26:30.917937+00:00", "meta": {"OBJECT_NAME": "COSMOS 2251 DEB", "OBJECT_ID": "1993-036APW", "EPOCH": "2025-12-26T11:04:00.094944", "MEAN_MOTION": 13.80920099, "ECCENTRICITY": 0.028895, "INCLINATION": 74.0031, "RA_OF_ASC_NODE": 279.3001, "ARG_OF_PERICENTER": 125.4027, "MEAN_ANOMALY": 237.4456, "EPHEMERIS_TYPE": 0, "CLASSIFICATION_TYPE": "U", "NORAD_CAT_ID": 35701, "ELEMENT_SET_NO": 999, "REV_AT_EPOCH": 62348, "BSTAR": 0.0012985, "MEAN_MOTION_DOT": 1.858e-05, "MEAN_MOTION_DDOT": 0}, "tle": {"line1": "1 35701U 93036APW 25360.46111221  .00001858  00000+0  12985-2 0  9999", "line2": "2 35701  74.0031 279.3001 0288950 125.4027 237.4456 13.80920099623483"}}, "geometry": {"type": "Point", "coordinates": [-162.39973446105842, -73.74933716813156]}}, {"type": "Feature", "properties": {"norad_id": 35703, "name": "COSMOS 2251 DEB", "group": "cosmos-2251-debris", "lat": 22.567282758704028, "lon": 19.846869893492926, "alt_km": 569.4426096060815, "timestamp": "2025-12-27T14:26:30.917947+00:00", "meta": {"OBJECT_NAME": "COSMOS 2251 DEB", "OBJECT_ID": "1993-036APY", "EPOCH": "2025-12-24T09:00:55.190592", "MEAN_MOTION": 14.90483201, "ECCENTRICITY": 0.00644143, "INCLINATION": 74.0417, "RA_OF_ASC_NODE": 19.4725, "ARG_OF_PERICENTER": 85.5638, "MEAN_ANOMALY": 275.2899, "EPHEMERIS_TYPE": 0, "CLASSIFICATION_TYPE": "U", "NORAD_CAT_ID": 35703, "ELEMENT_SET_NO": 999, "REV_AT_EPOCH": 66789, "BSTAR": 0.00063398121, "MEAN_MOTION_DOT": 6.404e-05, "MEAN_MOTION_DDOT": 0}, "tle": {"line1": "1 35703U 93036APY 25358.37563878  .00006404  00000+0  63398-3 0  9994", "line2": "2 35703  74.0417  19.4725 0064414  85.5638 275.2899 14.90483201667895"}}, "geometry": {"type": "Point", "coordinates": [19.846869893492926, 22.567282758704028]}}, {"type": "Feature", "properties": {"norad_id": 35705, "name": "COSMOS 2251 DEB", "group": "cosmos-2251-debris", "lat": -68.08392922283315, "lon": 62.864524422318446, "alt_km": 672.7670905935529, "timestamp": "2025-12-27T14:26:30.917957+00:00", "meta": {"OBJECT_NAME": "COSMOS 2251 DEB", "OBJECT_ID": "1993-036AQA", "EPOCH": "2025-12-21T00:37:19.012800", "MEAN_MOTION": 14.72474593, "ECCENTRICITY": 0.00333276, "INCLINATION": 74.2752, "RA_OF_ASC_NODE": 119.9236, "ARG_OF_PERICENTER": 64.9174, "MEAN_ANOMALY": 295.5452, "EPHEMERIS_TYPE": 0, "CLASSIFICATION_TYPE": "U", "NORAD_CAT_ID": 35705, "ELEMENT_SET_NO": 999, "REV_AT_EPOCH": 86048, "BSTAR": 0.0022061245, "MEAN_MOTION_DOT": 0.00014123, "MEAN_MOTION_DDOT": 0}, "tle": {"line1": "1 35705U 93036AQA 25355.02591450  .00014123  00000+0  22061-2 0  9990", "line2": "2 35705  74.2752 119.9236 0033327  64.9174 295.5452 14.72474593860483"}}, "geometry": {"type": "Point", "coordinates": [62.864524422318446, -68.08392922283315]}}]}